{"type":"Feature","properties":{},"geometry":{"type":"LineString","coordinates":[[75.93632,11.41491],[75.93633,11.41522],[75.93635,11.41555],[75.93643,11.41602],[75.93646,11.41624],[75.9365,11.4164],[75.93648,11.41648],[75.93651,11.41665],[75.93659,11.41715],[75.9366,11.41728],[75.93665,11.41781],[75.93666,11.41814],[75.93665,11.41815],[75.93655,11.41864],[75.93647,11.41909],[75.93643,11.41939],[75.93639,11.41965],[75.93633,11.41987],[75.93624,11.42004],[75.93613,11.42026],[75.93609,11.42034],[75.93605,11.42061],[75.93608,11.42089],[75.9361,11.421],[75.93617,11.42127],[75.93621,11.4214],[75.93629,11.42165],[75.93638,11.42185],[75.93651,11.42251],[75.93651,11.42251],[75.93634,11.42253],[75.93627,11.42253],[75.93618,11.42254],[75.93598,11.42254],[75.9359,11.42254],[75.93581,11.42254],[75.93559,11.42254],[75.93549,11.42252],[75.93544,11.42252],[75.93521,11.42253],[75.9351,11.42254],[75.93496,11.42255],[75.93474,11.42256],[75.93464,11.42257],[75.93447,11.42258],[75.93424,11.4226],[75.93408,11.42262],[75.93391,11.42264],[75.93369,11.42267],[75.93363,11.42267],[75.93344,11.42271],[75.93328,11.42274],[75.93316,11.42276],[75.93294,11.42281],[75.93287,11.42283],[75.93273,11.42287],[75.93261,11.4229],[75.93253,11.42293],[75.93241,11.42297],[75.93237,11.42298],[75.9323,11.42301],[75.93219,11.42306],[75.9321,11.4231],[75.93195,11.42317],[75.93189,11.42321],[75.93185,11.42324],[75.93179,11.42328],[75.93171,11.42336],[75.93168,11.4234],[75.93161,11.42348],[75.93154,11.42357],[75.93149,11.42363],[75.93141,11.42372],[75.93137,11.42377],[75.93135,11.4238],[75.93131,11.42385],[75.93126,11.4239],[75.93121,11.42395],[75.93117,11.424],[75.93111,11.42405],[75.93107,11.42408],[75.93102,11.42411],[75.93097,11.42415],[75.93092,11.42418],[75.93087,11.42421],[75.93074,11.42429],[75.9307,11.42431],[75.93065,11.42434],[75.93058,11.42437],[75.9305,11.42441],[75.93044,11.42443],[75.93035,11.42447],[75.9303,11.42449],[75.93022,11.42454],[75.93018,11.42458],[75.93012,11.42463],[75.93007,11.4247],[75.92999,11.42478],[75.92991,11.42485],[75.92988,11.42489],[75.92978,11.42498],[75.92967,11.4251],[75.92956,11.42521],[75.92951,11.42527],[75.92942,11.42536],[75.92931,11.42546],[75.92922,11.42555],[75.92915,11.42562],[75.92902,11.42575],[75.92892,11.42586],[75.92887,11.42591],[75.92882,11.42597],[75.92872,11.42607],[75.92865,11.42613],[75.92855,11.42622],[75.92848,11.42629],[75.9284,11.42637],[75.92823,11.42652],[75.92813,11.42659],[75.92808,11.42663],[75.928,11.42669],[75.92791,11.42674],[75.92782,11.42681],[75.92775,11.42686],[75.92766,11.42693],[75.92753,11.42702],[75.92725,11.42722],[75.92701,11.4274],[75.92694,11.42746],[75.92665,11.42767],[75.92623,11.42798],[75.92605,11.42811],[75.92588,11.42824],[75.92567,11.4284],[75.92535,11.42863],[75.92529,11.42867],[75.92507,11.42882],[75.92487,11.42896],[75.92481,11.42901],[75.92461,11.42913],[75.92446,11.42919],[75.92433,11.42924],[75.92398,11.42934],[75.92372,11.4294],[75.92367,11.42941],[75.92359,11.42943],[75.92321,11.42951],[75.92305,11.42954],[75.9227,11.42964],[75.92225,11.42975],[75.9221,11.42978],[75.92155,11.42993],[75.92133,11.42999],[75.9211,11.43004],[75.92087,11.43009],[75.92065,11.43011],[75.92039,11.43014],[75.92018,11.43016],[75.92011,11.43017],[75.92005,11.43017],[75.91989,11.43017],[75.91973,11.43014],[75.91957,11.43009],[75.91942,11.42999],[75.9193,11.4299],[75.91918,11.42973],[75.91913,11.4296],[75.91906,11.42941],[75.91901,11.42925],[75.91896,11.42908],[75.91891,11.42896],[75.91883,11.42886],[75.91873,11.42877],[75.91862,11.42869],[75.91851,11.42863],[75.91836,11.42859],[75.91805,11.42853],[75.91761,11.42846],[75.91753,11.42845],[75.91705,11.42838],[75.91676,11.42834],[75.91648,11.4283],[75.91602,11.42823],[75.91583,11.4282],[75.91564,11.42817],[75.91554,11.42817],[75.91545,11.42817],[75.91534,11.4282],[75.9152,11.42825],[75.91498,11.42834],[75.91475,11.42842],[75.91453,11.42852],[75.91443,11.42858],[75.91433,11.42864],[75.91409,11.42883],[75.91397,11.42892],[75.91391,11.42896],[75.9138,11.42901],[75.91353,11.42914],[75.91322,11.42929],[75.91292,11.42941],[75.9129,11.42942],[75.91277,11.42943],[75.91261,11.42946],[75.9125,11.42946],[75.91236,11.42945],[75.91224,11.42941],[75.91207,11.42934],[75.91185,11.42922],[75.91166,11.42909],[75.91154,11.42899],[75.91136,11.42883],[75.91114,11.42866],[75.91101,11.42858],[75.91091,11.42855],[75.9108,11.42853],[75.91064,11.42851],[75.91047,11.4285],[75.9103,11.42851],[75.91015,11.42854],[75.90996,11.42861],[75.90975,11.42875],[75.90957,11.4289],[75.90938,11.4291],[75.90902,11.42972],[75.90874,11.43021],[75.90847,11.43065],[75.90825,11.431],[75.90814,11.43115],[75.90811,11.43118],[75.90796,11.43136],[75.90788,11.43143],[75.9077,11.43159],[75.90763,11.43167],[75.90757,11.43174],[75.90748,11.43186],[75.90731,11.43212],[75.90703,11.43252],[75.90696,11.43262],[75.90683,11.43282],[75.90636,11.43353],[75.90611,11.43391],[75.906,11.43404],[75.90592,11.43413],[75.90586,11.43417],[75.90586,11.43417],[75.90585,11.43415],[75.90583,11.43414],[75.90581,11.43414],[75.90579,11.43414],[75.90578,11.43415],[75.90576,11.43416],[75.90575,11.43418],[75.90575,11.4342],[75.90534,11.43426],[75.9051,11.43429],[75.90493,11.43432],[75.90479,11.43434],[75.90456,11.43442],[75.90435,11.43456],[75.90425,11.43465],[75.90386,11.43493],[75.90382,11.43496],[75.90363,11.4351],[75.90359,11.43513],[75.90335,11.43533],[75.90285,11.4357],[75.9025,11.43592],[75.90242,11.43599],[75.90236,11.43605],[75.90229,11.43609],[75.90222,11.43612],[75.90213,11.43617],[75.90204,11.43619],[75.90183,11.43626],[75.90151,11.43635],[75.9014,11.4364],[75.90118,11.43651],[75.90086,11.43665],[75.90045,11.43681],[75.90033,11.43686],[75.89991,11.43702],[75.89982,11.43705],[75.89971,11.4371],[75.89928,11.43727],[75.89893,11.43743],[75.89887,11.43746],[75.89849,11.43767],[75.89831,11.43775],[75.89819,11.43781],[75.89777,11.43803],[75.89708,11.4384],[75.89673,11.43858],[75.89641,11.43872],[75.89632,11.43876],[75.89589,11.43893],[75.89544,11.43909],[75.89522,11.43917],[75.8948,11.43934],[75.89449,11.43945],[75.89428,11.43953],[75.89413,11.43957],[75.89398,11.43959],[75.8935,11.43965],[75.89329,11.43968],[75.89247,11.43976],[75.89241,11.43977],[75.89215,11.43981],[75.89191,11.43987],[75.89177,11.43992],[75.89165,11.44],[75.8915,11.44012],[75.89137,11.44025],[75.89121,11.44052],[75.89098,11.4409],[75.89091,11.441],[75.89084,11.44107],[75.89074,11.44117],[75.89052,11.44135],[75.8904,11.44145],[75.89027,11.44154],[75.88987,11.44172],[75.88933,11.44194],[75.88911,11.44202],[75.88886,11.44215],[75.88872,11.44225],[75.88829,11.44255],[75.88829,11.44255],[75.88836,11.44264],[75.8884,11.44272],[75.88843,11.44282],[75.88844,11.44292],[75.88848,11.44303],[75.8885,11.44311],[75.88852,11.44316],[75.88854,11.44321],[75.88856,11.44332],[75.88858,11.44343],[75.88859,11.44354],[75.88859,11.44365],[75.88857,11.44377],[75.88855,11.44386],[75.88854,11.44393],[75.88849,11.44404],[75.88844,11.44413],[75.88838,11.4442],[75.88833,11.44427],[75.88827,11.44436],[75.88823,11.44444],[75.88819,11.44451],[75.88813,11.44464],[75.8881,11.44475],[75.88807,11.44482],[75.88804,11.44494],[75.88802,11.44508],[75.888,11.44518],[75.88797,11.4453],[75.88796,11.44544],[75.88793,11.44557],[75.8879,11.44573],[75.88787,11.44585],[75.88786,11.44597],[75.88783,11.4461],[75.88782,11.44624],[75.88779,11.44636],[75.88778,11.44648],[75.88777,11.44661],[75.88776,11.44672],[75.88775,11.44689],[75.88775,11.44707],[75.88776,11.44725],[75.88778,11.44747],[75.88783,11.44763],[75.88789,11.4478],[75.88794,11.44795],[75.888,11.44807],[75.88806,11.44823],[75.88811,11.44841],[75.88813,11.44847],[75.88822,11.44865],[75.8883,11.4488],[75.88839,11.44892],[75.88851,11.44905],[75.88861,11.44917],[75.88868,11.44931],[75.88871,11.44942],[75.88872,11.44956],[75.88872,11.44967],[75.88874,11.44978],[75.88874,11.44993],[75.88875,11.45005],[75.88876,11.45016],[75.88877,11.45028],[75.88878,11.45042],[75.88879,11.4505],[75.8888,11.4506],[75.8888,11.45068],[75.8888,11.45077],[75.8888,11.45086],[75.8888,11.45095],[75.88879,11.45103],[75.88879,11.45113],[75.88879,11.45122],[75.88879,11.4513],[75.88881,11.45137],[75.88885,11.45145],[75.88889,11.45154],[75.88893,11.45161],[75.88898,11.45168],[75.88904,11.45175],[75.8891,11.45181],[75.88914,11.45188],[75.88917,11.45193],[75.88923,11.45201],[75.8893,11.4521],[75.88936,11.45218],[75.8894,11.45224],[75.88944,11.4523],[75.88954,11.45241],[75.88963,11.45253],[75.88972,11.45263],[75.88976,11.45272],[75.88984,11.4528],[75.88989,11.4529],[75.88994,11.45298],[75.88998,11.45306],[75.89002,11.45316],[75.89008,11.45327],[75.89012,11.45337],[75.89017,11.45348],[75.89022,11.45356],[75.89028,11.45369],[75.89035,11.45377],[75.8904,11.45383],[75.8905,11.45394],[75.89063,11.45407],[75.89073,11.45417],[75.89085,11.45425],[75.89096,11.45434],[75.89106,11.45446],[75.89114,11.45459],[75.89121,11.4547],[75.89126,11.45479],[75.89133,11.45489],[75.89137,11.45501],[75.89138,11.45513],[75.89136,11.45528],[75.89136,11.45544],[75.89135,11.45555],[75.89134,11.45566],[75.89135,11.45579],[75.89134,11.45587],[75.89135,11.45598],[75.89137,11.45615],[75.89137,11.45628],[75.89136,11.4564],[75.89132,11.45655],[75.89127,11.45671],[75.8912,11.45689],[75.89116,11.45705],[75.89112,11.45717],[75.89111,11.45719],[75.89107,11.45736],[75.89104,11.45746],[75.89103,11.45757],[75.89103,11.4577],[75.89105,11.45784],[75.89106,11.45799],[75.89107,11.45811],[75.89107,11.45824],[75.89107,11.45836],[75.89106,11.45848],[75.89107,11.45861],[75.89106,11.45873],[75.89107,11.45884],[75.89106,11.45895],[75.89105,11.45905],[75.89106,11.45918],[75.89107,11.45927],[75.8911,11.45936],[75.89114,11.45945],[75.8912,11.45954],[75.89128,11.45963],[75.89138,11.45973],[75.89146,11.45983],[75.89154,11.45992],[75.89162,11.46002],[75.89167,11.46009],[75.89172,11.46017],[75.8918,11.46028],[75.89186,11.46039],[75.89193,11.46051],[75.89201,11.46061],[75.89208,11.46071],[75.89213,11.46079],[75.8922,11.46086],[75.89228,11.46095],[75.89235,11.46104],[75.89243,11.46115],[75.89252,11.46125],[75.8926,11.46134],[75.89266,11.46142],[75.89275,11.46153],[75.89282,11.46161],[75.89287,11.46169],[75.89293,11.46179],[75.89297,11.46187],[75.89303,11.462],[75.89306,11.46212],[75.89308,11.46226],[75.89309,11.46237],[75.89309,11.46247],[75.89309,11.46254],[75.89309,11.46265],[75.89309,11.46278],[75.89308,11.46288],[75.89305,11.46297],[75.893,11.46309],[75.89292,11.46322],[75.89287,11.4633],[75.89282,11.46336],[75.89274,11.46345],[75.89265,11.46356],[75.89255,11.46367],[75.8925,11.46375],[75.89244,11.46384],[75.8924,11.46393],[75.89237,11.46402],[75.89232,11.46413],[75.89228,11.4642],[75.89225,11.46429],[75.89223,11.46438],[75.89221,11.46448],[75.89219,11.46458],[75.89219,11.46468],[75.89219,11.46479],[75.8922,11.4649],[75.89221,11.46499],[75.89222,11.4651],[75.89223,11.46519],[75.89224,11.46529],[75.89224,11.46537],[75.89225,11.46547],[75.89225,11.46556],[75.89225,11.46565],[75.89226,11.46577],[75.89227,11.46583],[75.89227,11.4659],[75.89227,11.46598],[75.89228,11.46605],[75.89228,11.46612],[75.89228,11.46616],[75.89229,11.46622],[75.89231,11.4663],[75.89232,11.46636],[75.89232,11.46639],[75.89233,11.46647],[75.89234,11.46658],[75.89236,11.46668],[75.89238,11.4668],[75.8924,11.46688],[75.89241,11.46692],[75.89243,11.46697],[75.89244,11.46703],[75.89246,11.4671],[75.89249,11.46719],[75.89251,11.46725],[75.89254,11.46731],[75.89256,11.46735],[75.89258,11.4674],[75.89262,11.46751],[75.89266,11.4676],[75.89268,11.46766],[75.89271,11.46775],[75.89275,11.46785],[75.89275,11.46794],[75.89279,11.46806],[75.89282,11.4682],[75.89285,11.4683],[75.8929,11.4684],[75.89294,11.46848],[75.89299,11.46857],[75.89305,11.46866],[75.89309,11.46874],[75.89315,11.46881],[75.89318,11.46885],[75.89321,11.46891],[75.89326,11.46899],[75.89332,11.46909],[75.89335,11.46916],[75.89341,11.46925],[75.89344,11.46932],[75.89348,11.46936],[75.89354,11.46945],[75.89358,11.46954],[75.89365,11.46966],[75.89375,11.46979],[75.89384,11.46989],[75.89394,11.46994],[75.89406,11.47001],[75.89424,11.47009],[75.89433,11.47014],[75.8944,11.47021],[75.89447,11.47028],[75.89455,11.47039],[75.89464,11.47055],[75.8947,11.47069],[75.89478,11.47085],[75.89484,11.47098],[75.89494,11.47119],[75.89506,11.47146],[75.89511,11.47163],[75.89514,11.47178],[75.89517,11.47188],[75.89522,11.47208],[75.89529,11.47227],[75.89533,11.47237],[75.89539,11.47246],[75.89546,11.47257],[75.89555,11.47265],[75.89566,11.47277],[75.8957,11.47284],[75.89574,11.47292],[75.89579,11.47306],[75.89583,11.47321],[75.89586,11.47332],[75.89588,11.47343],[75.89589,11.47356],[75.8959,11.47369],[75.8959,11.47386],[75.89591,11.47404],[75.89593,11.47424],[75.89592,11.47439],[75.8959,11.47452],[75.89588,11.47464],[75.89589,11.47477],[75.89592,11.47499],[75.89599,11.47516],[75.89605,11.47526],[75.89615,11.47538],[75.89626,11.47546],[75.89639,11.47555],[75.8965,11.47566],[75.89653,11.47574],[75.89659,11.47587],[75.89667,11.47605],[75.8967,11.47619],[75.89674,11.47633],[75.89679,11.47651],[75.89688,11.47673],[75.89694,11.47688],[75.897,11.47702],[75.89703,11.47716],[75.89706,11.47729],[75.89707,11.47741],[75.89708,11.47752],[75.89709,11.47764],[75.89713,11.47779],[75.89714,11.47793],[75.89714,11.47807],[75.89713,11.4782],[75.89713,11.47838],[75.89712,11.47853],[75.8971,11.47873],[75.8971,11.47877],[75.89707,11.47896],[75.89707,11.47898],[75.89705,11.4791],[75.89704,11.47921],[75.89703,11.47936],[75.89704,11.4796],[75.89704,11.47968],[75.89704,11.47975],[75.89703,11.47988],[75.89702,11.47999],[75.89702,11.48005],[75.89702,11.48012],[75.89702,11.4802],[75.89702,11.48029],[75.89702,11.48036],[75.89701,11.48049],[75.89701,11.48059],[75.89702,11.48071],[75.89703,11.48083],[75.89703,11.48094],[75.89702,11.48108],[75.89702,11.48125],[75.89702,11.4814],[75.89703,11.48155],[75.89707,11.48169],[75.8971,11.4818],[75.89713,11.48191],[75.89715,11.48199],[75.89717,11.48209],[75.89722,11.48225],[75.89727,11.4824],[75.89731,11.48256],[75.89738,11.48284],[75.8974,11.48294],[75.89743,11.48303],[75.89747,11.48314],[75.89753,11.48336],[75.89757,11.48352],[75.89762,11.48371],[75.89769,11.48385],[75.89774,11.48401],[75.89778,11.48418],[75.8978,11.48433],[75.8978,11.48439],[75.89781,11.48452],[75.89782,11.48463],[75.89783,11.48475],[75.89782,11.48486],[75.89782,11.48498],[75.89783,11.48511],[75.89784,11.48524],[75.89783,11.48537],[75.89782,11.48548],[75.89782,11.48559],[75.89781,11.4857],[75.8978,11.48577],[75.89778,11.48585],[75.89777,11.48594],[75.89774,11.48603],[75.8977,11.48612],[75.89767,11.48621],[75.89763,11.48633],[75.8976,11.48642],[75.89755,11.48654],[75.89753,11.4866],[75.8975,11.48669],[75.89747,11.48681],[75.89744,11.48689],[75.89741,11.48696],[75.89739,11.48704],[75.89736,11.48714],[75.89734,11.48722],[75.89733,11.48729],[75.8973,11.48741],[75.89728,11.48757],[75.89725,11.4877],[75.89722,11.48786],[75.8972,11.48798],[75.89717,11.48814],[75.89716,11.48829],[75.89715,11.48839],[75.89716,11.48848],[75.89716,11.48863],[75.89719,11.48876],[75.89721,11.48893],[75.89723,11.48904],[75.89724,11.48916],[75.89726,11.48927],[75.89726,11.48938],[75.89727,11.48949],[75.89726,11.48959],[75.89725,11.48972],[75.89722,11.48982],[75.8972,11.48991],[75.89718,11.49003],[75.89716,11.49018],[75.89715,11.49031],[75.89713,11.49041],[75.89712,11.49051],[75.89712,11.49064],[75.89714,11.49076],[75.89716,11.49086],[75.89718,11.49092],[75.89722,11.49105],[75.89728,11.4912],[75.89733,11.49138],[75.89736,11.49156],[75.89737,11.49172],[75.89739,11.49187],[75.89736,11.49202],[75.89733,11.49215],[75.89729,11.49227],[75.89726,11.4924],[75.89724,11.49252],[75.89722,11.49263],[75.8972,11.49274],[75.89719,11.49287],[75.89715,11.49302],[75.89711,11.49311],[75.89707,11.49321],[75.89703,11.4933],[75.89701,11.4934],[75.89698,11.4935],[75.89697,11.49361],[75.89697,11.49372],[75.89697,11.49385],[75.89697,11.49396],[75.89696,11.49407],[75.89696,11.49414],[75.89696,11.49425],[75.89696,11.49431],[75.89697,11.49441],[75.89697,11.49446],[75.89699,11.49454],[75.89699,11.49459],[75.89701,11.49469],[75.89704,11.49481],[75.89709,11.49497],[75.89712,11.49506],[75.89715,11.49516],[75.89717,11.49522],[75.8972,11.4953],[75.89723,11.49541],[75.89724,11.49555],[75.89725,11.49569],[75.89721,11.4958],[75.89718,11.49592],[75.89711,11.49601],[75.89705,11.49611],[75.897,11.49621],[75.89697,11.4963],[75.89692,11.49641],[75.89688,11.49652],[75.89684,11.49663],[75.89681,11.49672],[75.89673,11.49686],[75.89669,11.49696],[75.89664,11.49706],[75.8966,11.49711],[75.89656,11.49718],[75.8965,11.49727],[75.89645,11.49735],[75.89638,11.49744],[75.89632,11.49752],[75.89627,11.49759],[75.89611,11.49788],[75.89601,11.49802],[75.89594,11.49813],[75.89586,11.49825],[75.89576,11.49836],[75.89567,11.49848],[75.89557,11.49858],[75.89548,11.49868],[75.89542,11.49875],[75.89527,11.49891],[75.89516,11.49903],[75.89503,11.49915],[75.89493,11.49928],[75.89484,11.49938],[75.8947,11.49949],[75.89454,11.49965],[75.89439,11.49981],[75.89431,11.49989],[75.89423,11.49997],[75.89418,11.50002],[75.89397,11.50025],[75.8938,11.50044],[75.89364,11.5006],[75.89353,11.50078],[75.89347,11.50087],[75.89331,11.50122],[75.89319,11.50151],[75.89306,11.50181],[75.89295,11.50207],[75.89283,11.50233],[75.89283,11.50233],[75.89266,11.50237],[75.89203,11.50253],[75.89181,11.50261],[75.89175,11.50265],[75.89171,11.50269],[75.89162,11.50279],[75.89144,11.50305],[75.89139,11.5031],[75.89089,11.50353],[75.89083,11.50358],[75.8908,11.50364],[75.89067,11.50376],[75.8906,11.5038],[75.89039,11.50389],[75.89022,11.50391],[75.8899,11.50401],[75.88978,11.50403],[75.88939,11.50403],[75.88912,11.50411],[75.88898,11.50419],[75.88886,11.50431],[75.88875,11.50438],[75.88865,11.50452],[75.88845,11.50472],[75.888,11.50504],[75.88782,11.50525],[75.88772,11.50539],[75.88765,11.50569],[75.88757,11.50577],[75.88732,11.50596],[75.88717,11.50604],[75.88713,11.50609],[75.88672,11.50633],[75.88647,11.50649],[75.88621,11.50666],[75.88608,11.50669],[75.88587,11.50672],[75.88582,11.50671],[75.8856,11.50671],[75.88533,11.50673],[75.88508,11.5068],[75.88495,11.50685],[75.88481,11.50689],[75.88468,11.50694],[75.88445,11.50701],[75.88421,11.50717],[75.88409,11.5073],[75.88391,11.50754],[75.88381,11.50767],[75.88373,11.50773],[75.88361,11.50785],[75.88347,11.50792],[75.88335,11.50794],[75.8831,11.50795],[75.88264,11.50805],[75.88227,11.50794],[75.882,11.50774],[75.88182,11.50768],[75.88168,11.50763],[75.88152,11.50755],[75.88138,11.50741],[75.88133,11.50735],[75.8813,11.50727],[75.88121,11.50721],[75.88113,11.50722],[75.8809,11.50736],[75.88073,11.50745],[75.88042,11.5077],[75.88035,11.50777],[75.88022,11.50775],[75.88025,11.50769],[75.88032,11.50762],[75.8806,11.50725],[75.8806,11.50719],[75.88054,11.50719],[75.8803,11.50736],[75.88015,11.5075],[75.87996,11.50777],[75.87963,11.50789],[75.87951,11.50796],[75.87924,11.50814],[75.87873,11.5083],[75.87861,11.50835],[75.87854,11.50839],[75.87854,11.50839],[75.87851,11.50833],[75.87855,11.50828],[75.87862,11.50823],[75.87885,11.50811],[75.87887,11.50806],[75.87879,11.50803],[75.87872,11.50806],[75.87835,11.50829],[75.87823,11.50833],[75.87814,11.50831],[75.87792,11.50822],[75.87781,11.50821],[75.87772,11.50818],[75.87776,11.50805],[75.87784,11.50801],[75.8779,11.50802],[75.878,11.50808],[75.87805,11.50809],[75.87813,11.50806],[75.87822,11.50807],[75.8783,11.50806],[75.87833,11.508],[75.87843,11.50789],[75.8786,11.50777],[75.87861,11.50772],[75.87855,11.50767],[75.87848,11.50769],[75.87841,11.50774],[75.87819,11.50786],[75.87811,11.50784],[75.87803,11.50779],[75.87797,11.50757],[75.87799,11.5075],[75.87796,11.50737],[75.87794,11.50731],[75.8779,11.5073],[75.87784,11.50731],[75.8777,11.50737],[75.87762,11.50738],[75.87757,11.50733],[75.8777,11.50717],[75.8779,11.50702],[75.878,11.50688],[75.87795,11.50683],[75.87785,11.50688],[75.8778,11.50697],[75.87766,11.50697],[75.87765,11.50692],[75.87776,11.50684],[75.87784,11.50674],[75.87792,11.50665],[75.87809,11.50647],[75.87823,11.50637],[75.87838,11.50636],[75.87852,11.50632],[75.87863,11.5062],[75.87872,11.50606],[75.87887,11.50588],[75.87899,11.50573],[75.87905,11.50555],[75.87907,11.50541],[75.87905,11.50528],[75.87891,11.50506],[75.87871,11.50485],[75.8786,11.50472],[75.87851,11.50466],[75.87844,11.50467],[75.87833,11.50476],[75.87827,11.50485],[75.87817,11.50502],[75.87805,11.50509],[75.87794,11.50503],[75.87779,11.50498],[75.87767,11.50489],[75.87768,11.5048],[75.87778,11.50471],[75.87785,11.5046],[75.87798,11.50447],[75.87813,11.50418],[75.87819,11.50411],[75.8782,11.50404],[75.87828,11.50378],[75.87824,11.50371],[75.87817,11.50373],[75.87809,11.5038],[75.87799,11.50382],[75.87797,11.50379],[75.87802,11.50351],[75.8781,11.50322],[75.8781,11.50313],[75.87807,11.50307],[75.87807,11.50307],[75.87796,11.50321],[75.8777,11.50344],[75.87758,11.50352],[75.87749,11.50357],[75.87738,11.50365],[75.87714,11.50379],[75.87697,11.50387],[75.87681,11.50392],[75.87654,11.50406],[75.87639,11.50415],[75.87599,11.5046],[75.8757,11.50485],[75.87565,11.5049],[75.87548,11.50505],[75.87537,11.50512],[75.87529,11.5052],[75.87512,11.50532],[75.87506,11.50543],[75.87494,11.50554],[75.87488,11.50562],[75.87474,11.50569],[75.87459,11.50574],[75.87428,11.50582],[75.87412,11.50585],[75.87407,11.50584],[75.87394,11.5058],[75.87386,11.50574],[75.87377,11.50564],[75.87369,11.50543],[75.87359,11.50535],[75.87338,11.50542],[75.87328,11.50561],[75.87326,11.50569],[75.87315,11.50593],[75.87309,11.50602],[75.87304,11.50613],[75.87289,11.50652],[75.87289,11.50664],[75.87292,11.50672],[75.87297,11.50682],[75.87304,11.50689],[75.87308,11.50697],[75.87308,11.50706],[75.87302,11.50712],[75.87291,11.50707],[75.87285,11.50697],[75.87278,11.5069],[75.87263,11.5066],[75.87247,11.50626],[75.87243,11.50615],[75.87236,11.50593],[75.87231,11.50582],[75.87181,11.5055],[75.8717,11.50541],[75.87156,11.50525],[75.87139,11.50523],[75.8712,11.50524],[75.87108,11.50529],[75.87091,11.50531],[75.8704,11.50542],[75.87024,11.50543],[75.87,11.50543],[75.86914,11.50563],[75.86903,11.50568],[75.86886,11.50576],[75.86849,11.50592],[75.86834,11.50599],[75.86807,11.50607],[75.86787,11.5061],[75.86767,11.50611],[75.8675,11.50615],[75.86716,11.5063],[75.86677,11.50644],[75.86657,11.50649],[75.8662,11.50664],[75.86606,11.50668],[75.86606,11.50668]]}}