{"type":"Feature","properties":{},"geometry":{"type":"LineString","coordinates":[[75.69284,11.44351],[75.69252,11.4432],[75.69239,11.44308],[75.69239,11.44308],[75.6931,11.44241],[75.69345,11.44206],[75.69367,11.4418],[75.69408,11.44123],[75.69412,11.44116],[75.69412,11.44116],[75.69429,11.44122],[75.6944,11.44123],[75.69462,11.44128],[75.69508,11.4414],[75.69518,11.44142],[75.69536,11.4415],[75.69538,11.44151],[75.69568,11.44161],[75.69592,11.4417],[75.69592,11.4417],[75.69614,11.4418],[75.69625,11.44185],[75.69653,11.44198],[75.69681,11.4421],[75.69705,11.44228],[75.69731,11.44252],[75.69752,11.44274],[75.69766,11.44293],[75.69766,11.44293],[75.69785,11.44274],[75.69826,11.44235],[75.69891,11.44184],[75.69908,11.44172],[75.69928,11.44155],[75.69963,11.4412],[75.69973,11.4411],[75.69989,11.44093],[75.69994,11.44088],[75.70036,11.44035],[75.70048,11.44036],[75.70186,11.44041],[75.70254,11.44041],[75.70391,11.44028],[75.70425,11.44025],[75.70486,11.44018],[75.70559,11.44002],[75.70613,11.44007],[75.70627,11.44005],[75.70697,11.44],[75.70908,11.43983],[75.70955,11.43979],[75.71084,11.43983],[75.71089,11.43984],[75.71172,11.43995],[75.71298,11.44013],[75.71331,11.44023],[75.71342,11.44027],[75.71355,11.44033],[75.71412,11.44069],[75.7146,11.44097],[75.71474,11.44105],[75.71545,11.44153],[75.71619,11.44203],[75.7188,11.4434],[75.71954,11.44379],[75.72004,11.44404],[75.72036,11.44419],[75.72055,11.44423],[75.72107,11.44433],[75.7212,11.44436],[75.72192,11.44449],[75.72237,11.44456],[75.72261,11.44462],[75.72279,11.44468],[75.72296,11.44476],[75.72328,11.44498],[75.72425,11.44564],[75.72476,11.44592],[75.72531,11.44597],[75.72604,11.44603],[75.72628,11.44601],[75.72667,11.44599],[75.7271,11.44585],[75.72727,11.44565],[75.7274,11.44548],[75.72745,11.44529],[75.7276,11.44428],[75.72764,11.44406],[75.72766,11.44397],[75.72772,11.44388],[75.72808,11.44374],[75.72973,11.44312],[75.73005,11.443],[75.73017,11.443],[75.73028,11.44308],[75.73039,11.44319],[75.73049,11.4434],[75.73068,11.44377],[75.73083,11.44399],[75.73094,11.44411],[75.73122,11.44432],[75.73157,11.44451],[75.73192,11.44451],[75.73252,11.44446],[75.73307,11.44435],[75.73361,11.44401],[75.73394,11.44373],[75.73421,11.44364],[75.73453,11.44362],[75.7348,11.4437],[75.73508,11.44382],[75.73524,11.4439],[75.73543,11.44405],[75.73572,11.44433],[75.73598,11.44459],[75.7363,11.44487],[75.7365,11.44509],[75.73677,11.44538],[75.73684,11.44544],[75.73715,11.4457],[75.73749,11.44586],[75.73785,11.44599],[75.73802,11.44603],[75.73822,11.44607],[75.73866,11.44616],[75.739,11.4462],[75.73942,11.44624],[75.7395,11.44625],[75.73985,11.44631],[75.7404,11.44641],[75.74057,11.44648],[75.74102,11.44665],[75.74142,11.4468],[75.74178,11.44693],[75.74211,11.44711],[75.74259,11.44736],[75.74269,11.44741],[75.74322,11.44769],[75.74341,11.44785],[75.74369,11.44808],[75.74402,11.44834],[75.74436,11.44861],[75.74454,11.44875],[75.74466,11.44884],[75.74489,11.44903],[75.74495,11.44907],[75.74545,11.44946],[75.74565,11.44966],[75.74582,11.44983],[75.74598,11.44999],[75.74629,11.4503],[75.74657,11.45057],[75.74686,11.45086],[75.74723,11.45109],[75.74764,11.45138],[75.74794,11.45155],[75.74836,11.45169],[75.74859,11.45185],[75.74882,11.45204],[75.74908,11.45224],[75.74932,11.45248],[75.74946,11.45256],[75.74969,11.45255],[75.74998,11.45253],[75.75036,11.45251],[75.75077,11.45248],[75.75083,11.45248],[75.75105,11.4524],[75.75135,11.45231],[75.75157,11.45209],[75.7518,11.45186],[75.75202,11.45176],[75.75259,11.45151],[75.75302,11.45132],[75.75328,11.45121],[75.75349,11.45112],[75.75362,11.45107],[75.7539,11.45096],[75.75447,11.45074],[75.75472,11.45071],[75.75503,11.45066],[75.75517,11.45063],[75.75546,11.45055],[75.75574,11.45048],[75.75617,11.45027],[75.75655,11.45008],[75.75682,11.44998],[75.75685,11.44997],[75.75705,11.44989],[75.75724,11.44979],[75.75749,11.44965],[75.75775,11.44951],[75.75804,11.44942],[75.75829,11.44935],[75.75866,11.44924],[75.75873,11.44925],[75.75885,11.44926],[75.75905,11.44934],[75.75915,11.4496],[75.75924,11.44984],[75.75939,11.45004],[75.75973,11.45015],[75.76018,11.45019],[75.76061,11.45022],[75.76085,11.45027],[75.76096,11.45029],[75.76124,11.45034],[75.76169,11.45042],[75.76191,11.45046],[75.76198,11.45048],[75.76213,11.45052],[75.76238,11.45056],[75.76254,11.45056],[75.76263,11.45056],[75.76273,11.45056],[75.76365,11.45055],[75.76509,11.45053],[75.76554,11.45053],[75.7659,11.45051],[75.76623,11.45049],[75.76653,11.45052],[75.76673,11.45059],[75.76698,11.45071],[75.76719,11.45076],[75.76743,11.45079],[75.76762,11.45079],[75.76804,11.45075],[75.76852,11.45069],[75.76896,11.45062],[75.76961,11.45052],[75.76988,11.45048],[75.77002,11.45044],[75.7707,11.45028],[75.77111,11.45018],[75.77134,11.45011],[75.77189,11.44992],[75.77211,11.44985],[75.77295,11.4495],[75.77373,11.44914],[75.77391,11.44908],[75.77412,11.44902],[75.7745,11.44893],[75.77475,11.44886],[75.77578,11.44865],[75.77621,11.44859],[75.77667,11.44854],[75.77734,11.4485],[75.7775,11.44851],[75.77766,11.44851],[75.77814,11.44853],[75.77854,11.44854],[75.77867,11.44855],[75.77879,11.44855],[75.77904,11.44857],[75.77916,11.44859],[75.77926,11.4486],[75.77967,11.44864],[75.77988,11.44868],[75.78067,11.44882],[75.78163,11.44896],[75.78208,11.44902],[75.78236,11.44907],[75.78323,11.44922],[75.78338,11.44924],[75.78347,11.44925],[75.7835,11.44926],[75.78373,11.44928],[75.78416,11.44933],[75.78495,11.44943],[75.78505,11.44944],[75.78574,11.44951],[75.78633,11.44956],[75.78649,11.44956],[75.78673,11.44955],[75.78698,11.44952],[75.78726,11.44943],[75.78769,11.44921],[75.78809,11.44905],[75.78836,11.44899],[75.78844,11.44898],[75.78858,11.44896],[75.78885,11.44896],[75.7892,11.44896],[75.78951,11.44892],[75.78976,11.44882],[75.78992,11.44865],[75.79012,11.44825],[75.79025,11.44806],[75.79033,11.44792],[75.7904,11.44776],[75.79049,11.4475],[75.79054,11.4474],[75.79063,11.44729],[75.7909,11.44699],[75.79094,11.44695],[75.79127,11.44657],[75.79194,11.44583],[75.79214,11.44557],[75.79222,11.4455],[75.79233,11.44544],[75.79246,11.44544],[75.79263,11.44546],[75.7929,11.4455],[75.79315,11.44549],[75.79336,11.44544],[75.7935,11.44535],[75.79363,11.44522],[75.79376,11.44499],[75.79389,11.44483],[75.79397,11.44473],[75.79404,11.44468],[75.79419,11.44463],[75.79441,11.44458],[75.79457,11.44457],[75.79475,11.44455],[75.79505,11.44449],[75.79525,11.44443],[75.79547,11.44439],[75.79561,11.4444],[75.79574,11.44447],[75.79596,11.44463],[75.79621,11.44481],[75.79642,11.44492],[75.79664,11.44502],[75.79687,11.44509],[75.79714,11.44517],[75.79736,11.44522],[75.79755,11.44525],[75.79785,11.44527],[75.79833,11.4453],[75.79905,11.44539],[75.79922,11.44543],[75.79937,11.44549],[75.7995,11.44553],[75.80006,11.44586],[75.80034,11.44603],[75.80088,11.44638],[75.80104,11.44649],[75.8012,11.44656],[75.80146,11.44665],[75.80169,11.44673],[75.80174,11.44675],[75.80186,11.44676],[75.80199,11.44674],[75.80238,11.44665],[75.80285,11.44656],[75.80355,11.44644],[75.80388,11.44637],[75.80466,11.44621],[75.80513,11.44612],[75.80557,11.44602],[75.80606,11.44592],[75.80626,11.44589],[75.80637,11.44589],[75.80653,11.44591],[75.80673,11.44588],[75.807,11.44586],[75.80765,11.44584],[75.80785,11.44586],[75.808,11.44591],[75.80824,11.446],[75.80857,11.44619],[75.80885,11.44639],[75.80901,11.44655],[75.80914,11.44675],[75.80934,11.44693],[75.80971,11.44725],[75.80983,11.44736],[75.80989,11.44752],[75.80992,11.4477],[75.81,11.44786],[75.81009,11.44797],[75.81021,11.44805],[75.81035,11.4481],[75.81058,11.44818],[75.81092,11.44827],[75.81161,11.44843],[75.81201,11.44851],[75.81218,11.44854],[75.81235,11.44856],[75.8124,11.44856],[75.81272,11.44856],[75.81285,11.44856],[75.81351,11.44855],[75.81389,11.44855],[75.81417,11.44855],[75.81426,11.44855],[75.81467,11.44856],[75.81492,11.44858],[75.81532,11.44864],[75.81568,11.44867],[75.81642,11.44874],[75.81671,11.44876],[75.81686,11.44878],[75.8173,11.44882],[75.81761,11.44885],[75.818,11.44892],[75.81852,11.44905],[75.81891,11.44917],[75.81971,11.44934],[75.82031,11.44946],[75.8204,11.44948],[75.82056,11.4495],[75.8207,11.44951],[75.82086,11.4495],[75.821,11.44948],[75.82125,11.44942],[75.82168,11.4493],[75.82209,11.44918],[75.82216,11.44916],[75.8222,11.44914],[75.82248,11.44906],[75.82314,11.44886],[75.82345,11.44878],[75.82381,11.44868],[75.82401,11.44864],[75.82417,11.4486],[75.82435,11.44856],[75.82442,11.44854],[75.8245,11.44852],[75.82465,11.44846],[75.82517,11.4482],[75.82548,11.44801],[75.82607,11.44769],[75.8262,11.44762],[75.82652,11.44752],[75.82666,11.44747],[75.82681,11.44743],[75.82697,11.44742],[75.82713,11.44743],[75.82751,11.44749],[75.82768,11.44752],[75.82797,11.44753],[75.82813,11.44751],[75.82825,11.44749],[75.82854,11.44736],[75.82867,11.4473],[75.82903,11.44712],[75.8297,11.44681],[75.8297,11.44681],[75.82974,11.44698],[75.82978,11.44713],[75.8298,11.44722],[75.82985,11.44736],[75.82991,11.44749],[75.82997,11.4476],[75.83001,11.44765],[75.83006,11.44774],[75.83012,11.44784],[75.83021,11.44797],[75.83027,11.44812],[75.83033,11.4483],[75.83035,11.44838],[75.83035,11.44852],[75.83034,11.44865],[75.83034,11.44877],[75.83032,11.44898],[75.83035,11.44915],[75.83034,11.44936],[75.83034,11.4494],[75.83033,11.44969],[75.83033,11.45011],[75.83036,11.45063],[75.83039,11.4513],[75.83044,11.45156],[75.83047,11.45171],[75.83055,11.4518],[75.83083,11.45194],[75.831,11.45205],[75.83121,11.45216],[75.83161,11.45232],[75.8317,11.45236],[75.83182,11.45241],[75.83225,11.45265],[75.8325,11.45276],[75.83283,11.45287],[75.8329,11.4529],[75.8329,11.4529],[75.83293,11.45315],[75.83296,11.4533],[75.83295,11.45345],[75.83294,11.45358],[75.83291,11.45375],[75.83292,11.45387],[75.833,11.45397],[75.8331,11.45414],[75.83328,11.45452],[75.8334,11.45475],[75.83359,11.45508],[75.83372,11.45531],[75.8338,11.45548],[75.83388,11.45575],[75.83385,11.45588],[75.83385,11.45602],[75.83384,11.45621],[75.83382,11.45651],[75.8338,11.45674],[75.83378,11.45689],[75.83372,11.45711],[75.83361,11.45742],[75.83354,11.45769],[75.8335,11.458],[75.83348,11.45817],[75.83346,11.45826],[75.83346,11.45826],[75.83354,11.45833],[75.83362,11.45844],[75.83361,11.4586],[75.83356,11.4589],[75.8335,11.45921],[75.83349,11.45939],[75.83349,11.45956],[75.83352,11.45973],[75.83353,11.45988],[75.83361,11.45999],[75.83402,11.46],[75.83439,11.45998],[75.8344,11.4602],[75.83439,11.46048],[75.83437,11.46114],[75.83437,11.46114],[75.83496,11.46119],[75.83516,11.46125],[75.83516,11.46125],[75.83522,11.46138],[75.83524,11.46163],[75.83523,11.46189],[75.83527,11.46209],[75.83548,11.46271],[75.83551,11.46277],[75.83573,11.46325],[75.83597,11.46386],[75.83598,11.46434],[75.83596,11.46466],[75.83595,11.4651],[75.83591,11.46552],[75.83596,11.4657],[75.83596,11.46624],[75.83588,11.46653],[75.83583,11.46674],[75.8357,11.4672],[75.83562,11.46779],[75.83562,11.46779],[75.83591,11.4679],[75.83608,11.46814],[75.83624,11.46822],[75.83637,11.46822],[75.83659,11.46827],[75.83683,11.46859],[75.83688,11.4687],[75.83695,11.46881],[75.83724,11.46886],[75.83746,11.46888],[75.83765,11.4689],[75.83784,11.46891],[75.83802,11.46892],[75.83831,11.4689],[75.83864,11.46888],[75.83869,11.46886],[75.83878,11.4686],[75.83884,11.46845],[75.83912,11.46842],[75.83929,11.46843],[75.83942,11.46846],[75.83958,11.46831],[75.8397,11.46828],[75.83981,11.4683],[75.83994,11.4683],[75.84006,11.4683],[75.84017,11.46831],[75.84032,11.46835],[75.84045,11.46839],[75.84053,11.46844],[75.84058,11.46853],[75.84066,11.46856],[75.84074,11.4686],[75.84083,11.46863],[75.84094,11.46865],[75.84105,11.46869],[75.84113,11.46871],[75.84126,11.46874],[75.84137,11.46878],[75.84145,11.46882],[75.8415,11.46887],[75.84151,11.46891],[75.84149,11.46898],[75.84148,11.46906],[75.84148,11.46912],[75.84148,11.46915],[75.84146,11.46927],[75.84146,11.4694],[75.84149,11.46955],[75.84152,11.46959],[75.84158,11.46962],[75.84169,11.46963],[75.84202,11.46964],[75.84222,11.46967],[75.8423,11.4697],[75.84236,11.46975],[75.84238,11.46979],[75.84238,11.46985],[75.84232,11.47021],[75.84218,11.47058],[75.8424,11.47077],[75.8425,11.47084],[75.84262,11.47098],[75.84268,11.47117],[75.8427,11.47124],[75.84271,11.47145],[75.84266,11.47184],[75.8426,11.47215],[75.84262,11.47224],[75.84264,11.47236],[75.84271,11.47258],[75.84272,11.47277],[75.84267,11.47312],[75.8426,11.47333],[75.84259,11.47342],[75.84261,11.47385],[75.84262,11.47395],[75.84263,11.47453],[75.84263,11.47507],[75.84261,11.47543],[75.84261,11.47548],[75.84264,11.47553],[75.8427,11.47556],[75.84279,11.47558],[75.84302,11.47561],[75.84356,11.47562],[75.84406,11.47563],[75.84421,11.47565],[75.84431,11.47572],[75.84444,11.47599],[75.84467,11.47643],[75.8449,11.47686],[75.84503,11.47712],[75.84517,11.47735],[75.84517,11.47735],[75.84528,11.47738],[75.84537,11.47746],[75.84546,11.47751],[75.8455,11.47752],[75.84556,11.47753],[75.84562,11.47749],[75.84572,11.47738],[75.84608,11.477],[75.84625,11.47686],[75.84671,11.47653],[75.84696,11.47643],[75.84748,11.47627],[75.84754,11.47627],[75.84757,11.4763],[75.8477,11.47666],[75.84774,11.47668],[75.84779,11.47669],[75.84814,11.47662],[75.84822,11.4766],[75.84874,11.47647],[75.84921,11.47635],[75.84936,11.47694],[75.84939,11.47699],[75.84943,11.47701],[75.84949,11.47701],[75.84973,11.47695],[75.84989,11.4769],[75.85031,11.47676],[75.85062,11.47659],[75.85103,11.47638],[75.85122,11.47629],[75.85126,11.47627],[75.85147,11.47614],[75.85159,11.47606],[75.85167,11.47601],[75.8517,11.47601],[75.85178,11.476],[75.85188,11.476],[75.85196,11.47603],[75.85203,11.47605],[75.85237,11.47619],[75.85273,11.47627],[75.85319,11.47632],[75.85359,11.47635],[75.85395,11.47635],[75.85413,11.47633],[75.85442,11.47627],[75.85482,11.47624],[75.85517,11.47622],[75.85527,11.47623],[75.85534,11.47626],[75.85539,11.47631],[75.85544,11.47644],[75.85548,11.47648],[75.85556,11.47651],[75.85615,11.47648],[75.85637,11.47647],[75.85637,11.47647],[75.85637,11.47655],[75.85633,11.47694],[75.85632,11.47712],[75.85633,11.47719],[75.85636,11.47749],[75.8564,11.47774],[75.85643,11.47789],[75.85649,11.47808],[75.85658,11.47844],[75.85661,11.47876],[75.85662,11.47899],[75.85656,11.47937],[75.85653,11.47967],[75.85655,11.47986],[75.85659,11.47997],[75.85661,11.48003],[75.85686,11.48038],[75.85689,11.48041],[75.85691,11.48046],[75.85701,11.48075],[75.85699,11.48111],[75.85695,11.48136],[75.85694,11.48138],[75.85684,11.48161],[75.85676,11.48186],[75.85672,11.48194],[75.85661,11.48231],[75.85658,11.48242],[75.85658,11.48244],[75.85654,11.48261],[75.85652,11.4828],[75.8565,11.48297],[75.85647,11.48319],[75.85642,11.48332],[75.8561,11.4837],[75.85607,11.48383],[75.85604,11.48398],[75.85602,11.48425],[75.85603,11.48458],[75.856,11.48483],[75.85595,11.4851],[75.85591,11.4852],[75.85585,11.48528],[75.85573,11.48553],[75.85566,11.48584],[75.85565,11.48617],[75.85568,11.48635],[75.85572,11.48646],[75.85572,11.48656],[75.85577,11.48675],[75.85577,11.48693],[75.85574,11.48711],[75.85569,11.48725],[75.85561,11.48737],[75.85541,11.48764],[75.85531,11.48771],[75.85509,11.48788],[75.85494,11.48807],[75.85484,11.48828],[75.85476,11.48855],[75.8548,11.48872],[75.85482,11.48887],[75.85479,11.48901],[75.85466,11.48913],[75.85436,11.48949],[75.85427,11.4896],[75.85417,11.48972],[75.85405,11.48982],[75.85378,11.49003],[75.85357,11.4903],[75.85328,11.49054],[75.85315,11.49072],[75.85301,11.49086],[75.85296,11.49095],[75.85289,11.49104],[75.85285,11.49112],[75.8529,11.49149],[75.85289,11.49156],[75.85289,11.49164],[75.8528,11.49173],[75.85271,11.4918],[75.85262,11.49197],[75.85262,11.49212],[75.85265,11.49226],[75.85266,11.49244],[75.85261,11.4929],[75.85255,11.49303],[75.85255,11.4931],[75.8525,11.49318],[75.85238,11.4935],[75.8523,11.49383],[75.85225,11.4939],[75.85221,11.49398],[75.85216,11.49402],[75.85203,11.49422],[75.8518,11.49462],[75.85179,11.49472],[75.85182,11.49476],[75.85187,11.49472],[75.85194,11.49465],[75.852,11.49461],[75.85204,11.49464],[75.85204,11.4947],[75.85197,11.49486],[75.85192,11.49514],[75.85191,11.49533],[75.85193,11.49551],[75.85191,11.49562],[75.85184,11.49588],[75.85176,11.49602],[75.85168,11.4963],[75.8516,11.49641],[75.85153,11.49654],[75.8514,11.49692],[75.85135,11.49719],[75.85131,11.49747],[75.85122,11.4978],[75.85119,11.49807],[75.85116,11.49825],[75.85116,11.49834],[75.85118,11.49843],[75.85123,11.49847],[75.85132,11.49848],[75.85166,11.49833],[75.85179,11.49832],[75.85194,11.49827],[75.85207,11.49826],[75.85237,11.49818],[75.85261,11.49806],[75.85295,11.49788],[75.85303,11.4978],[75.85313,11.49774],[75.85336,11.49768],[75.85358,11.49767],[75.85382,11.49771],[75.85415,11.49763],[75.85439,11.49764],[75.85455,11.49763],[75.85493,11.49773],[75.85526,11.49774],[75.85558,11.49771],[75.85573,11.49767],[75.85591,11.49764],[75.856,11.49761],[75.85622,11.49757],[75.85634,11.49754],[75.85644,11.4975],[75.85653,11.49749],[75.85688,11.49761],[75.85698,11.49761],[75.85708,11.49761],[75.8572,11.4976],[75.85743,11.49754],[75.8576,11.49751],[75.8578,11.49748],[75.85796,11.49749],[75.85845,11.49755],[75.85867,11.49756],[75.85874,11.49755],[75.8589,11.49745],[75.85898,11.4974],[75.85916,11.49719],[75.85922,11.49714],[75.85947,11.49708],[75.85954,11.49705],[75.85963,11.49699],[75.85983,11.49685],[75.86029,11.49659],[75.86038,11.49656],[75.86058,11.49647],[75.86078,11.49638],[75.86091,11.49633],[75.86108,11.49623],[75.86126,11.49622],[75.86145,11.49619],[75.86153,11.49614],[75.86193,11.49578],[75.8621,11.49565],[75.86216,11.49553],[75.86222,11.49543],[75.86237,11.49537],[75.86269,11.49535],[75.86292,11.49525],[75.86335,11.49502],[75.86373,11.49488],[75.86401,11.49478],[75.86433,11.49471],[75.86475,11.49459],[75.86503,11.49445],[75.8655,11.49435],[75.86582,11.4942],[75.86594,11.49417],[75.86605,11.49415],[75.86616,11.49416],[75.86643,11.49423],[75.86681,11.49421],[75.86695,11.49418],[75.86706,11.49414],[75.86717,11.49411],[75.86757,11.49414],[75.86771,11.49414],[75.86783,11.49412],[75.86802,11.49399],[75.86813,11.49394],[75.86819,11.49398],[75.86818,11.49403],[75.86813,11.4941],[75.86806,11.49415],[75.86789,11.49424],[75.86775,11.49435],[75.86767,11.49436],[75.86761,11.4944],[75.86756,11.49446],[75.86756,11.49449],[75.86762,11.4945],[75.86804,11.49435],[75.86819,11.49428],[75.86841,11.49423],[75.86871,11.49421],[75.86883,11.49422],[75.86895,11.49427],[75.86899,11.4943],[75.86904,11.49435],[75.86908,11.49441],[75.86918,11.49457],[75.86921,11.49484],[75.86919,11.4949],[75.8692,11.49501],[75.86914,11.49532],[75.86911,11.49538],[75.86903,11.49594],[75.86901,11.49624],[75.86896,11.49639],[75.8688,11.4968],[75.86858,11.49729],[75.86841,11.49788],[75.86821,11.49851],[75.86818,11.49866],[75.86814,11.49875],[75.86799,11.49898],[75.86789,11.4991],[75.86773,11.49923],[75.86767,11.49931],[75.86757,11.49954],[75.8675,11.49991],[75.86748,11.5003],[75.86743,11.50043],[75.86737,11.50053],[75.86728,11.50063],[75.86723,11.50076],[75.86718,11.50087],[75.86701,11.50105],[75.86689,11.50115],[75.86681,11.50128],[75.86671,11.50138],[75.86662,11.50149],[75.8666,11.50159],[75.86649,11.50181],[75.86646,11.5019],[75.86641,11.50198],[75.86637,11.50209],[75.86608,11.50255],[75.86594,11.50282],[75.86584,11.50307],[75.8658,11.50322],[75.86576,11.50354],[75.86578,11.50378],[75.86582,11.50389],[75.86583,11.50403],[75.86581,11.50429],[75.86576,11.50444],[75.86569,11.50456],[75.8654,11.50504],[75.86535,11.50511],[75.86529,11.50522],[75.86489,11.5056],[75.8648,11.50576],[75.86465,11.50597],[75.86447,11.50611],[75.86434,11.50616],[75.86425,11.50622],[75.86413,11.50625],[75.86404,11.50634],[75.86384,11.50661],[75.86374,11.50669],[75.8637,11.50678],[75.86361,11.50687],[75.8635,11.50696],[75.8632,11.50723],[75.8632,11.50723],[75.86321,11.50732],[75.86329,11.50741],[75.86339,11.50748],[75.8635,11.50754],[75.86359,11.50752],[75.86373,11.50741],[75.86409,11.50719],[75.86418,11.50716],[75.86475,11.50706],[75.86488,11.50701],[75.86503,11.50699],[75.86518,11.50695],[75.86528,11.50691],[75.86571,11.5068],[75.86586,11.50674],[75.86604,11.50669],[75.86606,11.50668],[75.86606,11.50668]]}}