{"type":"Feature","properties":{},"geometry":{"type":"LineString","coordinates":[[75.78624,11.25769],[75.78619,11.25782],[75.78613,11.2581],[75.78589,11.25884],[75.78579,11.25925],[75.78577,11.25933],[75.78577,11.25933],[75.7858,11.25942],[75.78634,11.25941],[75.78768,11.25934],[75.78768,11.25934],[75.78764,11.25975],[75.78762,11.26016],[75.78761,11.26033],[75.78761,11.26045],[75.78759,11.2609],[75.78756,11.26117],[75.78756,11.26117],[75.78732,11.26131],[75.78687,11.26144],[75.78656,11.26151],[75.78656,11.26151],[75.78651,11.26163],[75.78654,11.26194],[75.78663,11.26227],[75.78666,11.26236],[75.78677,11.26267],[75.7868,11.26275],[75.78695,11.26296],[75.78701,11.26303],[75.78717,11.2633],[75.7872,11.26361],[75.78718,11.26394],[75.78721,11.2641],[75.7874,11.26468],[75.78753,11.26508],[75.78755,11.26521],[75.78817,11.26546],[75.78851,11.2656],[75.78866,11.26567],[75.78879,11.26576],[75.7889,11.26585],[75.78897,11.26589],[75.78908,11.26595],[75.78914,11.26598],[75.78928,11.266],[75.78942,11.26601],[75.78958,11.26601],[75.78985,11.26602],[75.78989,11.26603],[75.79,11.26606],[75.79011,11.26611],[75.79023,11.2662],[75.79029,11.26625],[75.79046,11.26636],[75.79056,11.26641],[75.79064,11.26645],[75.79089,11.26657],[75.79101,11.26665],[75.79114,11.26677],[75.79143,11.26716],[75.7918,11.26769],[75.7918,11.26769],[75.79151,11.2679],[75.79084,11.26841],[75.79057,11.26868],[75.78985,11.2694],[75.78918,11.27007],[75.78894,11.27032],[75.78864,11.27066],[75.7883,11.27113],[75.7882,11.27134],[75.78805,11.27167],[75.78795,11.27192],[75.7875,11.27311],[75.78733,11.27355],[75.78711,11.27401],[75.78684,11.27445],[75.78676,11.27459],[75.78665,11.27476],[75.78633,11.27523],[75.78601,11.27577],[75.78598,11.27582],[75.78574,11.27619],[75.78555,11.27648],[75.78524,11.27706],[75.78519,11.27716],[75.78433,11.27935],[75.78432,11.27939],[75.78429,11.27948],[75.78424,11.27968],[75.78418,11.28],[75.78388,11.28128],[75.78381,11.28159],[75.78351,11.2829],[75.78347,11.28305],[75.78346,11.28312],[75.78345,11.28313],[75.7831,11.28457],[75.78291,11.28506],[75.78264,11.28553],[75.78255,11.28565],[75.78247,11.28573],[75.7824,11.28578],[75.78227,11.28587],[75.78224,11.28589],[75.78215,11.28597],[75.782,11.28617],[75.78175,11.28692],[75.78173,11.28698],[75.78173,11.28698],[75.7818,11.28702],[75.78191,11.28706],[75.782,11.28708],[75.78227,11.2871],[75.78262,11.28711],[75.78284,11.28714],[75.78318,11.28717],[75.78389,11.28728],[75.78431,11.28739],[75.78436,11.2874],[75.7844,11.28742],[75.78443,11.28743],[75.78447,11.28745],[75.78451,11.28747],[75.78455,11.28749],[75.78455,11.28749],[75.78463,11.28756],[75.78518,11.28797],[75.78533,11.28808],[75.78551,11.28822],[75.78562,11.2883],[75.78625,11.28886],[75.78685,11.28918],[75.78715,11.28944],[75.78804,11.28993],[75.78807,11.28995],[75.78836,11.29003],[75.78836,11.29003],[75.78846,11.29038],[75.78854,11.29063],[75.78862,11.29084],[75.78897,11.29158],[75.78914,11.29194],[75.78961,11.2926],[75.78967,11.29269],[75.78978,11.29286],[75.79039,11.29382],[75.79058,11.29413],[75.79067,11.29416],[75.79109,11.29477],[75.79137,11.29511],[75.79139,11.29514],[75.7916,11.2954],[75.79194,11.29575],[75.79194,11.29575],[75.79206,11.2961],[75.79208,11.29624],[75.79222,11.29679],[75.79224,11.29693],[75.7923,11.2971],[75.79233,11.29721],[75.79235,11.29741],[75.79237,11.29747],[75.79242,11.2976],[75.79242,11.2976],[75.79242,11.29787],[75.79237,11.29809],[75.79231,11.29839],[75.79222,11.29877],[75.79211,11.29918],[75.79206,11.29957],[75.79204,11.29991],[75.79212,11.30021],[75.79228,11.30068],[75.79232,11.30082],[75.79243,11.30104],[75.79257,11.30126],[75.79261,11.30132],[75.79301,11.3016],[75.7935,11.30209],[75.79362,11.3022],[75.79369,11.30227],[75.79417,11.30276],[75.79437,11.30295],[75.79444,11.30301],[75.7946,11.30319],[75.79481,11.30345],[75.7949,11.30356],[75.79509,11.30384],[75.79525,11.30429],[75.79528,11.30437],[75.79539,11.30469],[75.79542,11.30479],[75.79547,11.30494],[75.79588,11.30559],[75.79595,11.3057],[75.79623,11.30599],[75.79652,11.30628],[75.79667,11.3064],[75.79683,11.30662],[75.79705,11.30698],[75.79721,11.30732],[75.79726,11.30746],[75.79734,11.30766],[75.7974,11.30789],[75.79745,11.30806],[75.79747,11.30816],[75.79756,11.30846],[75.79757,11.30851],[75.79764,11.30872],[75.79773,11.30906],[75.79782,11.30932],[75.79797,11.30967],[75.79812,11.30999],[75.79833,11.31035],[75.79854,11.31071],[75.79873,11.311],[75.79899,11.31132],[75.79917,11.31156],[75.79943,11.31193],[75.79956,11.31218],[75.79963,11.31237],[75.79971,11.31261],[75.79974,11.3128],[75.79968,11.31294],[75.79968,11.31294],[75.79963,11.31301],[75.79955,11.31307],[75.79936,11.31317],[75.79899,11.3133],[75.79865,11.31331],[75.79861,11.31331],[75.79851,11.31332],[75.79837,11.31345],[75.79833,11.31352],[75.79829,11.31361],[75.79829,11.31386],[75.79848,11.31434],[75.79856,11.31455],[75.79857,11.31459],[75.79864,11.31476],[75.79864,11.31514],[75.79864,11.31536],[75.79867,11.31556],[75.79873,11.3161],[75.79874,11.31614],[75.79879,11.31621],[75.7991,11.31666],[75.79922,11.31683],[75.79996,11.31768],[75.80049,11.31809],[75.80064,11.31821],[75.80117,11.31861],[75.80136,11.31872],[75.80181,11.31905],[75.80214,11.31929],[75.80232,11.31946],[75.80265,11.31989],[75.8028,11.32026],[75.8029,11.32044],[75.80322,11.32084],[75.80356,11.32118],[75.80378,11.32125],[75.804,11.32132],[75.8044,11.32141],[75.80484,11.32145],[75.8053,11.32155],[75.80537,11.32157],[75.80574,11.32166],[75.80667,11.32233],[75.80729,11.32289],[75.80788,11.32357],[75.80849,11.32459],[75.80876,11.32514],[75.8088,11.32522],[75.80893,11.32551],[75.80918,11.326],[75.80927,11.32623],[75.80959,11.32678],[75.80974,11.32703],[75.8098,11.32712],[75.8098,11.32712],[75.80979,11.32724],[75.8097,11.32774],[75.80949,11.32867],[75.80939,11.32927],[75.80933,11.32965],[75.80924,11.33043],[75.80921,11.33116],[75.8092,11.33126],[75.80927,11.33217],[75.80931,11.3325],[75.80934,11.3329],[75.80945,11.33376],[75.80952,11.3345],[75.80954,11.33482],[75.80958,11.33518],[75.80962,11.33564],[75.80979,11.33665],[75.80982,11.33687],[75.80982,11.33691],[75.80989,11.33733],[75.80997,11.33818],[75.81002,11.33863],[75.81004,11.33899],[75.81004,11.33908],[75.81009,11.33931],[75.81011,11.33994],[75.81012,11.34049],[75.81013,11.34062],[75.81016,11.34091],[75.81015,11.34135],[75.81013,11.34173],[75.81011,11.3418],[75.81007,11.34202],[75.80998,11.34244],[75.80987,11.34285],[75.80974,11.34336],[75.8095,11.3444],[75.80945,11.34458],[75.80928,11.34515],[75.80923,11.34529],[75.80907,11.34598],[75.80902,11.34676],[75.80904,11.34713],[75.80907,11.34752],[75.80912,11.34862],[75.80912,11.34866],[75.80914,11.34897],[75.80915,11.34965],[75.80915,11.34972],[75.80915,11.34985],[75.80915,11.34992],[75.80914,11.3509],[75.80912,11.35127],[75.809,11.35157],[75.80889,11.35206],[75.80886,11.35215],[75.80871,11.35266],[75.80842,11.35356],[75.80823,11.3541],[75.80799,11.3548],[75.80781,11.3554],[75.80746,11.35642],[75.80746,11.35672],[75.80748,11.35712],[75.80755,11.35741],[75.80768,11.35771],[75.80774,11.35783],[75.80814,11.35849],[75.8091,11.35993],[75.80923,11.36013],[75.80973,11.36085],[75.80991,11.36111],[75.81044,11.36198],[75.81049,11.36203],[75.81101,11.36256],[75.81168,11.3632],[75.81227,11.3638],[75.81264,11.36416],[75.81278,11.36437],[75.81287,11.3645],[75.81323,11.36519],[75.81348,11.36604],[75.81374,11.36702],[75.8138,11.36718],[75.81398,11.36793],[75.81419,11.36854],[75.81424,11.3687],[75.81429,11.36889],[75.8146,11.37005],[75.81469,11.37047],[75.81474,11.37107],[75.8149,11.37322],[75.81503,11.3744],[75.8151,11.37534],[75.81522,11.37619],[75.81528,11.37642],[75.81547,11.37697],[75.81559,11.37721],[75.81586,11.37753],[75.81608,11.37776],[75.81667,11.3784],[75.81773,11.37966],[75.81836,11.38049],[75.81858,11.38081],[75.81881,11.38111],[75.81935,11.38225],[75.81936,11.38228],[75.81948,11.38253],[75.81955,11.3827],[75.81958,11.38276],[75.8197,11.38308],[75.81986,11.38333],[75.82002,11.38346],[75.82026,11.38357],[75.82098,11.38391],[75.82153,11.3842],[75.82183,11.38439],[75.82219,11.38473],[75.82231,11.38486],[75.82348,11.38611],[75.8238,11.38651],[75.82394,11.38672],[75.82401,11.38686],[75.82402,11.38691],[75.82406,11.38708],[75.82403,11.38741],[75.82399,11.3876],[75.82403,11.38786],[75.82412,11.38814],[75.82411,11.38892],[75.82417,11.38934],[75.82428,11.38964],[75.82425,11.39],[75.82419,11.39074],[75.82419,11.39117],[75.82419,11.39155],[75.82422,11.3918],[75.82438,11.39218],[75.82467,11.39252],[75.82478,11.39265],[75.8251,11.393],[75.82517,11.39308],[75.82538,11.39333],[75.82548,11.39383],[75.82548,11.3942],[75.82558,11.39447],[75.82567,11.39476],[75.82574,11.39541],[75.82575,11.39573],[75.82579,11.39597],[75.82595,11.39639],[75.82608,11.39674],[75.82619,11.39697],[75.82644,11.39734],[75.82663,11.39764],[75.82708,11.39866],[75.8273,11.39898],[75.8275,11.39944],[75.82755,11.39956],[75.82759,11.3998],[75.82761,11.39993],[75.8277,11.40016],[75.82777,11.40037],[75.82812,11.40108],[75.82824,11.40134],[75.82853,11.40176],[75.82882,11.40206],[75.82916,11.4024],[75.82943,11.40263],[75.82962,11.40281],[75.82996,11.40291],[75.83033,11.40301],[75.83047,11.40304],[75.83078,11.40313],[75.83113,11.40323],[75.83124,11.40328],[75.8313,11.40333],[75.83138,11.4034],[75.83144,11.4035],[75.83145,11.40352],[75.83152,11.40368],[75.83155,11.40408],[75.83155,11.40417],[75.83155,11.40447],[75.83155,11.40479],[75.83148,11.40511],[75.83126,11.40599],[75.83118,11.40651],[75.83113,11.40679],[75.8311,11.40696],[75.83099,11.40771],[75.831,11.40778],[75.83104,11.40806],[75.83117,11.40859],[75.83117,11.40862],[75.83116,11.40926],[75.83122,11.41033],[75.83143,11.41144],[75.8315,11.41199],[75.83141,11.41281],[75.83137,11.41307],[75.83132,11.41335],[75.83124,11.41383],[75.83128,11.41414],[75.8313,11.41419],[75.83149,11.41461],[75.83185,11.41532],[75.83205,11.41575],[75.83215,11.41615],[75.83203,11.41688],[75.83191,11.41717],[75.83164,11.4177],[75.83151,11.41792],[75.83145,11.41804],[75.83136,11.41822],[75.83119,11.41887],[75.83118,11.41915],[75.83122,11.41938],[75.8313,11.41997],[75.83136,11.4205],[75.83139,11.42069],[75.83144,11.42097],[75.8315,11.42143],[75.83151,11.42152],[75.83151,11.42152],[75.83154,11.42177],[75.83156,11.42191],[75.83157,11.42202],[75.8316,11.42217],[75.83162,11.42228],[75.83163,11.42239],[75.83166,11.42252],[75.83168,11.42272],[75.8317,11.42286],[75.83172,11.42301],[75.83173,11.42315],[75.83172,11.42326],[75.83173,11.42333],[75.83173,11.4235],[75.83171,11.42369],[75.83171,11.42384],[75.83168,11.42403],[75.83167,11.42414],[75.83163,11.4244],[75.83156,11.42469],[75.83151,11.42484],[75.83145,11.42502],[75.83145,11.42514],[75.83146,11.42527],[75.83151,11.42537],[75.83156,11.42551],[75.8316,11.42561],[75.8317,11.42577],[75.83175,11.42586],[75.8318,11.42597],[75.83185,11.42604],[75.83191,11.42613],[75.83197,11.42623],[75.83204,11.42632],[75.8321,11.42644],[75.83217,11.42659],[75.83223,11.4267],[75.83229,11.42685],[75.83239,11.42703],[75.83249,11.42724],[75.83257,11.4274],[75.83267,11.4276],[75.83273,11.42771],[75.83278,11.42783],[75.83288,11.42802],[75.83297,11.42825],[75.83305,11.42844],[75.83311,11.42862],[75.83316,11.42876],[75.83321,11.42887],[75.83326,11.42899],[75.83334,11.42915],[75.83347,11.42936],[75.83356,11.42953],[75.83358,11.42958],[75.83362,11.42965],[75.83371,11.42979],[75.83379,11.42996],[75.8339,11.43013],[75.83399,11.4303],[75.8341,11.43047],[75.83418,11.43064],[75.83421,11.43077],[75.83423,11.43082],[75.83437,11.4311],[75.83446,11.43134],[75.83448,11.43141],[75.83451,11.43153],[75.83461,11.43173],[75.83468,11.43192],[75.83478,11.43217],[75.83486,11.43237],[75.83494,11.43264],[75.835,11.43281],[75.83509,11.43304],[75.83511,11.4331],[75.83519,11.43328],[75.83525,11.43339],[75.8353,11.43367],[75.83527,11.43379],[75.83523,11.43388],[75.83521,11.43392],[75.83519,11.43402],[75.8351,11.43419],[75.83506,11.4343],[75.83502,11.4344],[75.83497,11.43456],[75.83491,11.43471],[75.83486,11.43486],[75.83483,11.43495],[75.8348,11.4351],[75.83478,11.43519],[75.83477,11.43525],[75.83476,11.43538],[75.83474,11.43555],[75.83472,11.43566],[75.83473,11.43578],[75.83477,11.43588],[75.83487,11.43604],[75.83495,11.43617],[75.83505,11.43631],[75.83515,11.43645],[75.83523,11.43657],[75.83533,11.43676],[75.83537,11.43689],[75.83541,11.43706],[75.83545,11.43718],[75.83545,11.43728],[75.83545,11.43743],[75.83541,11.43757],[75.83535,11.43767],[75.83525,11.43778],[75.83518,11.43784],[75.83512,11.43788],[75.835,11.43798],[75.83486,11.4381],[75.83477,11.43818],[75.83468,11.43828],[75.83462,11.43835],[75.83457,11.43848],[75.83455,11.43858],[75.83454,11.43875],[75.83455,11.43889],[75.83457,11.43896],[75.83458,11.43904],[75.83461,11.43921],[75.83466,11.43937],[75.83473,11.43959],[75.83481,11.43977],[75.83482,11.43979],[75.83486,11.43992],[75.8349,11.44009],[75.83497,11.44024],[75.83501,11.44038],[75.83508,11.44052],[75.83515,11.44069],[75.83522,11.44088],[75.83528,11.44112],[75.83534,11.44129],[75.83543,11.44149],[75.83544,11.44155],[75.83547,11.44166],[75.8355,11.44192],[75.83548,11.44211],[75.83545,11.44231],[75.8354,11.44264],[75.83537,11.44277],[75.83536,11.44285],[75.8353,11.44307],[75.83527,11.44328],[75.83522,11.44351],[75.83517,11.44376],[75.83513,11.44397],[75.8351,11.44421],[75.83508,11.44435],[75.83507,11.44454],[75.83508,11.44471],[75.83509,11.44492],[75.83515,11.44516],[75.83527,11.44564],[75.83528,11.44583],[75.83528,11.44583],[75.83507,11.44586],[75.83486,11.44591],[75.83476,11.44594],[75.83351,11.44624],[75.83325,11.44631],[75.83308,11.44635],[75.83289,11.4464],[75.83206,11.44661],[75.83168,11.44671],[75.83151,11.44674],[75.83136,11.44675],[75.83052,11.44679],[75.83004,11.4468],[75.82983,11.44681],[75.8297,11.44681],[75.8297,11.44681],[75.82974,11.44698],[75.82978,11.44713],[75.8298,11.44722],[75.82985,11.44736],[75.82991,11.44749],[75.82997,11.4476],[75.83001,11.44765],[75.83006,11.44774],[75.83012,11.44784],[75.83021,11.44797],[75.83027,11.44812],[75.83033,11.4483],[75.83035,11.44838],[75.83035,11.44852],[75.83034,11.44865],[75.83034,11.44877],[75.83032,11.44898],[75.83035,11.44915],[75.83034,11.44936],[75.83034,11.4494],[75.83033,11.44969],[75.83033,11.45011],[75.83036,11.45063],[75.83039,11.4513],[75.83044,11.45156],[75.83047,11.45171],[75.83055,11.4518],[75.83083,11.45194],[75.831,11.45205],[75.83121,11.45216],[75.83161,11.45232],[75.8317,11.45236],[75.83182,11.45241],[75.83225,11.45265],[75.8325,11.45276],[75.83283,11.45287],[75.8329,11.4529],[75.8329,11.4529],[75.83293,11.45315],[75.83296,11.4533],[75.83295,11.45345],[75.83294,11.45358],[75.83291,11.45375],[75.83292,11.45387],[75.833,11.45397],[75.8331,11.45414],[75.83328,11.45452],[75.8334,11.45475],[75.83359,11.45508],[75.83372,11.45531],[75.8338,11.45548],[75.83388,11.45575],[75.83385,11.45588],[75.83385,11.45602],[75.83384,11.45621],[75.83382,11.45651],[75.8338,11.45674],[75.83378,11.45689],[75.83372,11.45711],[75.83361,11.45742],[75.83354,11.45769],[75.8335,11.458],[75.83348,11.45817],[75.83346,11.45826],[75.83346,11.45826],[75.83354,11.45833],[75.83362,11.45844],[75.83361,11.4586],[75.83356,11.4589],[75.8335,11.45921],[75.83349,11.45939],[75.83349,11.45956],[75.83352,11.45973],[75.83353,11.45988],[75.83361,11.45999],[75.83402,11.46],[75.83439,11.45998],[75.8344,11.4602],[75.83439,11.46048],[75.83437,11.46114],[75.83437,11.46114],[75.83496,11.46119],[75.83516,11.46125],[75.83516,11.46125],[75.83522,11.46138],[75.83524,11.46163],[75.83523,11.46189],[75.83527,11.46209],[75.83548,11.46271],[75.83551,11.46277],[75.83573,11.46325],[75.83597,11.46386],[75.83598,11.46434],[75.83596,11.46466],[75.83595,11.4651],[75.83591,11.46552],[75.83596,11.4657],[75.83596,11.46624],[75.83588,11.46653],[75.83583,11.46674],[75.8357,11.4672],[75.83562,11.46779],[75.83562,11.46779],[75.83591,11.4679],[75.83608,11.46814],[75.83624,11.46822],[75.83637,11.46822],[75.83659,11.46827],[75.83683,11.46859],[75.83688,11.4687],[75.83695,11.46881],[75.83724,11.46886],[75.83746,11.46888],[75.83765,11.4689],[75.83784,11.46891],[75.83802,11.46892],[75.83831,11.4689],[75.83864,11.46888],[75.83869,11.46886],[75.83878,11.4686],[75.83884,11.46845],[75.83912,11.46842],[75.83929,11.46843],[75.83942,11.46846],[75.83958,11.46831],[75.8397,11.46828],[75.83981,11.4683],[75.83994,11.4683],[75.84006,11.4683],[75.84017,11.46831],[75.84032,11.46835],[75.84045,11.46839],[75.84053,11.46844],[75.84058,11.46853],[75.84066,11.46856],[75.84074,11.4686],[75.84083,11.46863],[75.84094,11.46865],[75.84105,11.46869],[75.84113,11.46871],[75.84126,11.46874],[75.84137,11.46878],[75.84145,11.46882],[75.8415,11.46887],[75.84151,11.46891],[75.84149,11.46898],[75.84148,11.46906],[75.84148,11.46912],[75.84148,11.46915],[75.84146,11.46927],[75.84146,11.4694],[75.84149,11.46955],[75.84152,11.46959],[75.84158,11.46962],[75.84169,11.46963],[75.84202,11.46964],[75.84222,11.46967],[75.8423,11.4697],[75.84236,11.46975],[75.84238,11.46979],[75.84238,11.46985],[75.84232,11.47021],[75.84218,11.47058],[75.8424,11.47077],[75.8425,11.47084],[75.84262,11.47098],[75.84268,11.47117],[75.8427,11.47124],[75.84271,11.47145],[75.84266,11.47184],[75.8426,11.47215],[75.84262,11.47224],[75.84264,11.47236],[75.84271,11.47258],[75.84272,11.47277],[75.84267,11.47312],[75.8426,11.47333],[75.84259,11.47342],[75.84261,11.47385],[75.84262,11.47395],[75.84263,11.47453],[75.84263,11.47507],[75.84261,11.47543],[75.84261,11.47548],[75.84264,11.47553],[75.8427,11.47556],[75.84279,11.47558],[75.84302,11.47561],[75.84356,11.47562],[75.84406,11.47563],[75.84421,11.47565],[75.84431,11.47572],[75.84444,11.47599],[75.84467,11.47643],[75.8449,11.47686],[75.84503,11.47712],[75.84517,11.47735],[75.84517,11.47735],[75.84528,11.47738],[75.84537,11.47746],[75.84546,11.47751],[75.8455,11.47752],[75.84556,11.47753],[75.84562,11.47749],[75.84572,11.47738],[75.84608,11.477],[75.84625,11.47686],[75.84671,11.47653],[75.84696,11.47643],[75.84748,11.47627],[75.84754,11.47627],[75.84757,11.4763],[75.8477,11.47666],[75.84774,11.47668],[75.84779,11.47669],[75.84814,11.47662],[75.84822,11.4766],[75.84874,11.47647],[75.84921,11.47635],[75.84936,11.47694],[75.84939,11.47699],[75.84943,11.47701],[75.84949,11.47701],[75.84973,11.47695],[75.84989,11.4769],[75.85031,11.47676],[75.85062,11.47659],[75.85103,11.47638],[75.85122,11.47629],[75.85126,11.47627],[75.85147,11.47614],[75.85159,11.47606],[75.85167,11.47601],[75.8517,11.47601],[75.85178,11.476],[75.85188,11.476],[75.85196,11.47603],[75.85203,11.47605],[75.85237,11.47619],[75.85273,11.47627],[75.85319,11.47632],[75.85359,11.47635],[75.85395,11.47635],[75.85413,11.47633],[75.85442,11.47627],[75.85482,11.47624],[75.85517,11.47622],[75.85527,11.47623],[75.85534,11.47626],[75.85539,11.47631],[75.85544,11.47644],[75.85548,11.47648],[75.85556,11.47651],[75.85615,11.47648],[75.85637,11.47647],[75.85637,11.47647],[75.85637,11.47655],[75.85633,11.47694],[75.85632,11.47712],[75.85633,11.47719],[75.85636,11.47749],[75.8564,11.47774],[75.85643,11.47789],[75.85649,11.47808],[75.85658,11.47844],[75.85661,11.47876],[75.85662,11.47899],[75.85656,11.47937],[75.85653,11.47967],[75.85655,11.47986],[75.85659,11.47997],[75.85661,11.48003],[75.85686,11.48038],[75.85689,11.48041],[75.85691,11.48046],[75.85701,11.48075],[75.85699,11.48111],[75.85695,11.48136],[75.85694,11.48138],[75.85684,11.48161],[75.85676,11.48186],[75.85672,11.48194],[75.85661,11.48231],[75.85658,11.48242],[75.85658,11.48244],[75.85654,11.48261],[75.85652,11.4828],[75.8565,11.48297],[75.85647,11.48319],[75.85642,11.48332],[75.8561,11.4837],[75.85607,11.48383],[75.85604,11.48398],[75.85602,11.48425],[75.85603,11.48458],[75.856,11.48483],[75.85595,11.4851],[75.85591,11.4852],[75.85585,11.48528],[75.85573,11.48553],[75.85566,11.48584],[75.85565,11.48617],[75.85568,11.48635],[75.85572,11.48646],[75.85572,11.48656],[75.85577,11.48675],[75.85577,11.48693],[75.85574,11.48711],[75.85569,11.48725],[75.85561,11.48737],[75.85541,11.48764],[75.85531,11.48771],[75.85509,11.48788],[75.85494,11.48807],[75.85484,11.48828],[75.85476,11.48855],[75.8548,11.48872],[75.85482,11.48887],[75.85479,11.48901],[75.85466,11.48913],[75.85436,11.48949],[75.85427,11.4896],[75.85417,11.48972],[75.85405,11.48982],[75.85378,11.49003],[75.85357,11.4903],[75.85328,11.49054],[75.85315,11.49072],[75.85301,11.49086],[75.85296,11.49095],[75.85289,11.49104],[75.85285,11.49112],[75.8529,11.49149],[75.85289,11.49156],[75.85289,11.49164],[75.8528,11.49173],[75.85271,11.4918],[75.85262,11.49197],[75.85262,11.49212],[75.85265,11.49226],[75.85266,11.49244],[75.85261,11.4929],[75.85255,11.49303],[75.85255,11.4931],[75.8525,11.49318],[75.85238,11.4935],[75.8523,11.49383],[75.85225,11.4939],[75.85221,11.49398],[75.85216,11.49402],[75.85203,11.49422],[75.8518,11.49462],[75.85179,11.49472],[75.85182,11.49476],[75.85187,11.49472],[75.85194,11.49465],[75.852,11.49461],[75.85204,11.49464],[75.85204,11.4947],[75.85197,11.49486],[75.85192,11.49514],[75.85191,11.49533],[75.85193,11.49551],[75.85191,11.49562],[75.85184,11.49588],[75.85176,11.49602],[75.85168,11.4963],[75.8516,11.49641],[75.85153,11.49654],[75.8514,11.49692],[75.85135,11.49719],[75.85131,11.49747],[75.85122,11.4978],[75.85119,11.49807],[75.85116,11.49825],[75.85116,11.49834],[75.85118,11.49843],[75.85123,11.49847],[75.85132,11.49848],[75.85166,11.49833],[75.85179,11.49832],[75.85194,11.49827],[75.85207,11.49826],[75.85237,11.49818],[75.85261,11.49806],[75.85295,11.49788],[75.85303,11.4978],[75.85313,11.49774],[75.85336,11.49768],[75.85358,11.49767],[75.85382,11.49771],[75.85415,11.49763],[75.85439,11.49764],[75.85455,11.49763],[75.85493,11.49773],[75.85526,11.49774],[75.85558,11.49771],[75.85573,11.49767],[75.85591,11.49764],[75.856,11.49761],[75.85622,11.49757],[75.85634,11.49754],[75.85644,11.4975],[75.85653,11.49749],[75.85688,11.49761],[75.85698,11.49761],[75.85708,11.49761],[75.8572,11.4976],[75.85743,11.49754],[75.8576,11.49751],[75.8578,11.49748],[75.85796,11.49749],[75.85845,11.49755],[75.85867,11.49756],[75.85874,11.49755],[75.8589,11.49745],[75.85898,11.4974],[75.85916,11.49719],[75.85922,11.49714],[75.85947,11.49708],[75.85954,11.49705],[75.85963,11.49699],[75.85983,11.49685],[75.86029,11.49659],[75.86038,11.49656],[75.86058,11.49647],[75.86078,11.49638],[75.86091,11.49633],[75.86108,11.49623],[75.86126,11.49622],[75.86145,11.49619],[75.86153,11.49614],[75.86193,11.49578],[75.8621,11.49565],[75.86216,11.49553],[75.86222,11.49543],[75.86237,11.49537],[75.86269,11.49535],[75.86292,11.49525],[75.86335,11.49502],[75.86373,11.49488],[75.86401,11.49478],[75.86433,11.49471],[75.86475,11.49459],[75.86503,11.49445],[75.8655,11.49435],[75.86582,11.4942],[75.86594,11.49417],[75.86605,11.49415],[75.86616,11.49416],[75.86643,11.49423],[75.86681,11.49421],[75.86695,11.49418],[75.86706,11.49414],[75.86717,11.49411],[75.86757,11.49414],[75.86771,11.49414],[75.86783,11.49412],[75.86802,11.49399],[75.86813,11.49394],[75.86819,11.49398],[75.86818,11.49403],[75.86813,11.4941],[75.86806,11.49415],[75.86789,11.49424],[75.86775,11.49435],[75.86767,11.49436],[75.86761,11.4944],[75.86756,11.49446],[75.86756,11.49449],[75.86762,11.4945],[75.86804,11.49435],[75.86819,11.49428],[75.86841,11.49423],[75.86871,11.49421],[75.86883,11.49422],[75.86895,11.49427],[75.86899,11.4943],[75.86904,11.49435],[75.86908,11.49441],[75.86918,11.49457],[75.86921,11.49484],[75.86919,11.4949],[75.8692,11.49501],[75.86914,11.49532],[75.86911,11.49538],[75.86903,11.49594],[75.86901,11.49624],[75.86896,11.49639],[75.8688,11.4968],[75.86858,11.49729],[75.86841,11.49788],[75.86821,11.49851],[75.86818,11.49866],[75.86814,11.49875],[75.86799,11.49898],[75.86789,11.4991],[75.86773,11.49923],[75.86767,11.49931],[75.86757,11.49954],[75.8675,11.49991],[75.86748,11.5003],[75.86743,11.50043],[75.86737,11.50053],[75.86728,11.50063],[75.86723,11.50076],[75.86718,11.50087],[75.86701,11.50105],[75.86689,11.50115],[75.86681,11.50128],[75.86671,11.50138],[75.86662,11.50149],[75.8666,11.50159],[75.86649,11.50181],[75.86646,11.5019],[75.86641,11.50198],[75.86637,11.50209],[75.86608,11.50255],[75.86594,11.50282],[75.86584,11.50307],[75.8658,11.50322],[75.86576,11.50354],[75.86578,11.50378],[75.86582,11.50389],[75.86583,11.50403],[75.86581,11.50429],[75.86576,11.50444],[75.86569,11.50456],[75.8654,11.50504],[75.86535,11.50511],[75.86529,11.50522],[75.86489,11.5056],[75.8648,11.50576],[75.86465,11.50597],[75.86447,11.50611],[75.86434,11.50616],[75.86425,11.50622],[75.86413,11.50625],[75.86404,11.50634],[75.86384,11.50661],[75.86374,11.50669],[75.8637,11.50678],[75.86361,11.50687],[75.8635,11.50696],[75.8632,11.50723],[75.8632,11.50723],[75.86321,11.50732],[75.86329,11.50741],[75.86339,11.50748],[75.8635,11.50754],[75.86359,11.50752],[75.86373,11.50741],[75.86409,11.50719],[75.86418,11.50716],[75.86475,11.50706],[75.86488,11.50701],[75.86503,11.50699],[75.86518,11.50695],[75.86528,11.50691],[75.86571,11.5068],[75.86586,11.50674],[75.86604,11.50669],[75.86606,11.50668],[75.86606,11.50668]]}}